08674   12.71  0.15 K243V 290.87850   65.64306  244.67135   10.24441  0.1017152  0.16958435   3.2325521  0 E2024-N16  3196  27 1988-2024 0.70 M-v 3Ek MPCLINUX   0000   (8674) 1991 VA1           20240701
08675   12.85  0.15 K243V 350.79972  221.62989  316.90296   10.03193  0.0408999  0.18827468   3.0149129  0 E2024-N27  3921  24 1987-2024 0.62 M-v 3Ek MPCLINUX   0000   (8675) 1991 YZ            20240701
08676   13.33  0.15 K243V  64.99572  192.68241  229.39138    3.44036  0.1321165  0.18518426   3.0483629  0 E2024-J40  3287  24 1990-2024 0.59 M-v 3Ek MPCLINUX   0000   (8676) Lully              20240502
08677   13.30  0.15 K243V 239.42085  219.77869  137.29566   10.65202  0.0915641  0.19121894   2.9838852  0 E2024-N27  5222  26 1992-2024 0.55 M-v 3Ek MPCLINUX   0000   (8677) Charlier           20240701
08678   13.73  0.15 K243V 146.40629  222.77585   57.25724    5.77838  0.1167214  0.17518647   3.1632658  0 E2024-H78  2373  25 1992-2024 0.62 M-v 3Ek MPCLINUX   0000   (8678) Bal                20240322
08679   13.73  0.15 K243V 132.68495  212.82453  179.89628    0.78603  0.1744534  0.18631007   3.0360703  0 E2024-N27  2825  25 1979-2024 0.77 M-v 3Ek MPCLINUX   0000   (8679) Tingstade          20240605
08680   13.35  0.15 K243V  26.36215    0.00857   36.57380    5.90571  0.1655624  0.17764554   3.1340062  0 E2024-H78  2812  24 1990-2024 0.60 M-v 3Ek MPCLINUX   0000   (8680) Rone               20240322
08681   13.12  0.15 K243V 117.34233  237.04980  151.36793    2.57371  0.1701562  0.18495760   3.0508529  0 E2024-L94  3481  27 1989-2024 0.73 M-v 3Ek MPCLINUX   0000   (8681) Burs               20240608
08682   13.06  0.15 K243V 134.55118  160.28677  141.00394    0.98919  0.1561111  0.17733478   3.1376664  0 E2024-GB3  3466  26 1992-2024 0.60 M-v 3Ek MPCLINUX   0000   (8682) Kraklingbo         20240407
08683   13.87  0.15 K243V 242.77912  296.37848  183.18015    8.09919  0.1557725  0.17186098   3.2039411  0 E2024-JQ5  1930  24 1990-2023 0.68 M-v 3Ek MPCLINUX   0000   (8683) Sjolander          20231205
08684   14.96  0.15 K243V 170.98602  203.05700  184.85539    1.23752  0.0422880  0.30922587   2.1658024  0 E2024-MB4  3030  25 1982-2024 0.71 M-v 3Ek MPCLINUX   0000   (8684) Reichwein          20240627
08685   14.81  0.15 K243V 263.19473  312.57160  263.35277    0.89593  0.0459859  0.30059476   2.2070650  0 E2024-JM0  2709  23 1992-2024 0.61 M-v 3Ek MPCLINUX   0000   (8685) Faure              20240508
08686   14.65  0.15 K243V 354.08716  268.58806  136.61246    7.70222  0.0940773  0.28659019   2.2783923  0 E2024-AF8  6293  21 1992-2024 0.41 M-v 3Ek MPCLINUX   0000   (8686) Akenside           20240101
08687   15.39  0.15 K243V 294.39678  174.76535  202.15259    2.52326  0.0708708  0.27917088   2.3185830  0 E2024-JF3  1745  24 1978-2024 0.65 M-v 3Ek MPCLINUX   0000   (8687) Caussols           20240507
08688   14.59  0.15 K243V  78.19734  176.66561  151.72862    4.44612  0.1740744  0.28756089   2.2732621  0 E2024-E73  4586  22 1992-2024 0.50 M-v 3Ek MPCLINUX   0000   (8688) Delaunay           20240305
08689   15.06  0.15 K243V 127.89636  247.94364   84.93932    2.11438  0.1632749  0.29221216   2.2490746  0 E2024-JM0  2323  23 1972-2024 0.65 M-v 3Ek MPCLINUX   0000   (8689) 1992 PU3           20240508
08690   15.54  0.15 K243V 141.00696   13.30171   44.37368    1.90035  0.1708639  0.26669154   2.3903595  0 E2024-L10  1365  21 1989-2024 0.66 M-v 3Ek MPCLINUX   0000   (8690) Swindle            20240531
08691   13.85  0.15 K243V  89.49818   75.74156  308.02816    5.49896  0.1540841  0.25809399   2.4431537  0 E2024-J18  3649  23 1931-2024 0.54 M-v 3Ek MPCLINUX   0000   (8691) Etsuko             20240501
08692   14.27  0.15 K243V 334.80122   76.30762  234.01580    5.21293  0.1265394  0.27284723   2.3542704  0 E2024-N27  3251  23 1981-2024 0.67 M-v 3Ek MPCLINUX   0000   (8692) 1992 WH            20240702
08693   13.12  0.15 K243V 180.83020  239.08097  127.68374    6.92518  0.1574398  0.26402638   2.4064186  0 E2024-N27  5555  26 1955-2024 0.61 M-v 3Ek MPCLINUX   0000   (8693) Matsuki            20240701
08694   12.71  0.15 K243V 134.09497   37.65021   42.86989    2.54773  0.0713737  0.19715737   2.9236634  0 E2024-N27  4278  32 1976-2024 0.71 M-v 3Ek MPCLINUX   0000   (8694) 1993 CO            20240702
08695   14.49  0.15 K243V 299.66973  304.17303   57.78683    2.86372  0.0439674  0.20089622   2.8872754  0 E2024-M11  2110  25 1990-2024 0.79 M-v 3Ek MPCLINUX   0000   (8695) Bergvall           20240616
08696   13.62  0.15 K243V 243.87919  346.03952   66.77649    6.02035  0.1319677  0.16954305   3.2330771  0 E2024-N27  1942  23 1993-2024 0.77 M-v 3Ek MPCLINUX   0000   (8696) Kjeriksson         20240702
08697   13.78  0.15 K243V 146.17510   21.54444  287.01348    0.98855  0.1744314  0.18124541   3.0923694  0 E2024-J78  2607  27 1971-2024 0.63 M-v 3Ek MPCLINUX   0000   (8697) Olofsson           20240504
08698   13.24  0.15 K243V 250.47133   94.54930    1.18365    1.63275  0.0602192  0.20547539   2.8442177  0 E2024-M45  2975  27 1981-2024 0.73 M-v 3Ek MPCLINUX   0000   (8698) Bertilpettersson   20240623
08699   14.58  0.15 K243V  29.52639    6.30416  272.46513    0.20303  0.1109299  0.20059544   2.8901608  0 E2024-LA2  1935  26 1993-2024 0.81 M-v 3Ek MPCLINUX   0000   (8699) 1993 FO48          20240609
08700   13.02  0.15 K243V 243.59700  338.42853  160.03831    1.05116  0.1556363  0.17316546   3.1878304  0 E2024-JQ5  2901  29 1975-2023 0.60 M-v 3Ek MPCLINUX   0000   (8700) Gevaert            20231216
08701   12.64  0.15 K243V 107.18161  123.15191  198.93334    6.72826  0.1502006  0.17552918   3.1591470  0 E2024-JF3  3916  26 1983-2024 0.54 M-v 3Ek MPCLINUX   0000   (8701) 1993 LG2           20240407
08702   14.21  0.15 K243V  75.68920  196.86292  239.39862    4.55487  0.0987274  0.30005834   2.2096946  0 E2024-N16  3356  22 1953-2024 0.76 M-v 3Ek MPCLINUX   0000   (8702) Nakanishi          20240629
08703   14.70  0.15 K243V 126.25752   18.32094  151.61339    5.01617  0.0430157  0.27778528   2.3262867  0 E2024-N16  3040  25 1953-2024 0.67 M-v 3Ek MPCLINUX   0000   (8703) Nakanotadao        20240630
08704   15.55  0.15 K243V 201.28884   92.02699  296.32033    3.48584  0.1804517  0.30635427   2.1793154  0 E2024-LB8  1716  21 1986-2024 0.76 M-v 3Ek MPCLINUX   0000   (8704) Sadakane           20240610
08705   14.33  0.15 K243V 178.09604  275.62066  187.71259    6.36871  0.0545908  0.27589941   2.3368753  0 E2024-N16  3799  24 1991-2024 0.64 M-v 3Ek MPCLINUX   0000   (8705) 1994 AL3           20240630
08706   13.65  0.15 K243V 156.10445   46.95888   32.73546    8.58665  0.0853144  0.20496389   2.8489478  0 E2024-MA5  3523  24 1989-2024 0.64 M-v 3Ek MPCLINUX   0000   (8706) Takeyama           20240626
08707   14.30  0.15 K243V 298.68277  269.42093   39.66711    0.56919  0.0554136  0.26984559   2.3716968  0 E2024-N27  6181  24 1991-2024 0.52 M-v 3Ek MPCLINUX   0000   (8707) Arakihiroshi       20240702
08708   13.91  0.15 K243V 355.35659  349.31838  135.34998    2.93596  0.1460697  0.22667303   2.6640118  0 E2024-JM0  3421  23 1984-2024 0.60 M-v 3Ek MPCLINUX   0000   (8708) 1994 DD            20240508
08709   17.07  0.15 K243V 133.30311  153.76844  119.05741    3.52135  0.4908535  0.24512460   2.5285883  0 E2023-XD2   539  15 1990-2023 0.72 M-v 3Ek MPCLINUX   1804   (8709) Kadlu              20231120
08710   13.86  0.15 K243V  42.64419  132.42399   78.41393   15.14433  0.1582228  0.23344828   2.6122151  0 E2024-N27  3810  25 1954-2024 0.59 M-v 3Ek MPCLINUX   0000   (8710) Hawley             20240702
08711   13.61  0.15 K243V 337.81689   20.94498  148.64876   27.19478  0.0613393  0.22218113   2.6997980  0 E2024-L23  4083  24 1994-2024 0.49 M-v 3Ek MPCLINUX   0000   (8711) Lukeasher          20240601
08712   12.75  0.15 K243V 176.51337  190.96068  105.41696    2.54212  0.1468524  0.17853241   3.1236186  0 E2024-JM0  3880  27 1988-2024 0.57 M-v 3Ek MPCLINUX   0000   (8712) Suzuko             20240508
08713   14.07  0.15 K243V 273.26829  358.78644   73.95945    3.91617  0.1272878  0.29150132   2.2527294  0 E2024-M45  4920  24 1988-2024 0.55 M-v 3Ek MPCLINUX   0000   (8713) Azusa              20240623
08714   14.37  0.15 K243V 115.65115  269.39547   32.99931    4.14353  0.2050906  0.28579588   2.2826119  0 E2024-F14  2776  23 1985-2024 0.58 M-v 3Ek MPCLINUX   0000   (8714) 1995 OT            20240317
08715   14.71  0.15 K243V 350.06888  250.44868   69.78091    6.01751  0.2192791  0.27484732   2.3428350  0 E2024-N27  2238  25 1981-2024 0.75 M-v 3Ek MPCLINUX   0000   (8715) 1995 OX1           20240702
08716   13.54  0.15 K243V 299.39965  274.52949  212.73854   12.82899  0.1089780  0.17519382   3.1631773  0 E2024-E73  3104  26 1990-2024 0.57 M-v 3Ek MPCLINUX   0000   (8716) Ginestra           20240305
08717   13.20  0.15 K243V 355.24466  250.01482  143.56909    1.72519  0.2031522  0.17388515   3.1790282  0 E2024-CG3  2886  26 1978-2024 0.62 M-v 3Ek MPCLINUX   0000   (8717) Richviktorov       20240105
08718   13.51  0.15 K243V 134.89661  178.02108  204.56695    7.04360  0.1717799  0.18413071   3.0599798  0 E2024-N16  2783  25 1979-2024 0.74 M-v 3Ek MPCLINUX   0000   (8718) 1995 UC8           20240605
08719   13.81  0.15 K243V 259.47553  109.99722  224.71585   11.85703  0.2041255  0.22919714   2.6444169  0 E2024-N27  4367  24 1994-2024 0.59 M-v 3Ek MPCLINUX   0000   (8719) Vesmir             20240701
08720   13.35  0.15 K243V 269.34440  186.04218   61.91762    4.55611  0.1305746  0.18301591   3.0723934  0 E2024-L42  2890  25 1991-2024 0.58 M-v 3Ek MPCLINUX   0000   (8720) Takamizawa         20240507
08721   11.53  0.15 K243V 340.70459   87.22024  265.23825    5.44843  0.0283201  0.12886006   3.8820145  0 E2024-N27  3408  30 1981-2024 0.71 M-v 3Ek MPCLINUX   0008   (8721) AMOS               20240702
08722   14.26  0.15 K243V 162.95396   49.00058  324.15725    5.84036  0.3005893  0.26732646   2.3865732  0 E2024-L81  2602  22 1948-2024 0.62 M-v 3Ek MPCLINUX   0000   (8722) Schirra            20240606
